{
  "norad_id": 62336,
  "name": "PIESAT-2 12",
  "history": [
    {
      "epoch": "2026-03-28T02:21:21.498336",
      "apogee_km": 527.0616319651353,
      "perigee_km": 524.6023001400472,
      "latitude_deg": -84.78725117057444,
      "longitude_deg": 63.02388704009354,
      "semi_major_axis_km": 6903.968966052591,
      "eccentricity": 0.00017811,
      "inclination_deg": 97.5207,
      "raan_deg": 35.5696,
      "arg_perigee_deg": 94.1441,
      "mean_anomaly_deg": 265.9993,
      "mean_motion_rev_day": 15.13402741
    }
  ]
}