{"fetched_at":"2026-03-30T06:02:59Z","count":15439,"tles":[{"name":"PIESAT-2 12","line1":"1 62336U 24241D   26087.09816549  .00001520  00000+0  88800-4 0  9993","line2":"2 62336  97.5207  35.5696 0001781  94.1441 265.9993 15.13402741 70532","category":"Other"}]}